{"type": "FeatureCollection", "features": [ {"type": "Feature", "properties": {"norad_id": 34077, "name": "IRIDIUM 33 DEB", "group": "iridium-33-debris", "lat": -59.424387104048535, "lon": -125.41890548226174, "alt_km": 689.5353273273349, "timestamp": "2025-12-19T16:54:44.647202+00:00", "meta": {"OBJECT_NAME": "IRIDIUM 33 DEB", "OBJECT_ID": "1997-051CL", "EPOCH": "2025-12-19T04:37:08.926752", "MEAN_MOTION": 14.64901937, "ECCENTRICITY": 0.00094858, "INCLINATION": 86.3856, "RA_OF_ASC_NODE": 48.6652, "ARG_OF_PERICENTER": 18.7729, "MEAN_ANOMALY": 41.3423, "EPHEMERIS_TYPE": 0, "CLASSIFICATION_TYPE": "U", "NORAD_CAT_ID": 34077, "ELEMENT_SET_NO": 999, "REV_AT_EPOCH": 88427, "BSTAR": 0.00072794541, "MEAN_MOTION_DOT": 3.915e-05, "MEAN_MOTION_DDOT": 0}, "tle": {"line1": "1 34077U 97051CL  25353.19246443  .00003915  00000+0  72795-3 0  9994", "line2": "2 34077  86.3856  48.6652 0009485  18.7729  41.3423 14.64901937884270"}}, "geometry": {"type": "Point", "coordinates": [-125.41890548226174, -59.424387104048535]}}, {"type": "Feature", "properties": {"norad_id": 34079, "name": "IRIDIUM 33 DEB", "group": "iridium-33-debris", "lat": -19.429408882268913, "lon": 4.213780461666091, "alt_km": 619.5839691796791, "timestamp": "2025-12-19T16:54:44.647213+00:00", "meta": {"OBJECT_NAME": "IRIDIUM 33 DEB", "OBJECT_ID": "1997-051CN", "EPOCH": "2025-12-19T07:23:13.665984", "MEAN_MOTION": 14.83686948, "ECCENTRICITY": 0.00048144, "INCLINATION": 86.3768, "RA_OF_ASC_NODE": 5.675, "ARG_OF_PERICENTER": 345.2663, "MEAN_ANOMALY": 36.9038, "EPHEMERIS_TYPE": 0, "CLASSIFICATION_TYPE": "U", "NORAD_CAT_ID": 34079, "ELEMENT_SET_NO": 999, "REV_AT_EPOCH": 89075, "BSTAR": 0.0011697955, "MEAN_MOTION_DOT": 9.693e-05, "MEAN_MOTION_DDOT": 0}, "tle": {"line1": "1 34079U 97051CN  25353.30779706  .00009693  00000+0  11698-2 0  9995", "line2": "2 34079  86.3768   5.6750 0004814 345.2663  36.9038 14.83686948890757"}}, "geometry": {"type": "Point", "coordinates": [4.213780461666091, -19.429408882268913]}}, {"type": "Feature", "properties": {"norad_id": 34088, "name": "IRIDIUM 33 DEB", "group": "iridium-33-debris", "lat": -86.33975170690758, "lon": -53.766867887834316, "alt_km": 602.124120707077, "timestamp": "2025-12-19T16:54:44.647224+00:00", "meta": {"OBJECT_NAME": "IRIDIUM 33 DEB", "OBJECT_ID": "1997-051CX", "EPOCH": "2025-12-19T03:03:48.145248", "MEAN_MOTION": 14.91662643, "ECCENTRICITY": 0.00063639, "INCLINATION": 86.3843, "RA_OF_ASC_NODE": 27.7888, "ARG_OF_PERICENTER": 156.0805, "MEAN_ANOMALY": 257.7392, "EPHEMERIS_TYPE": 0, "CLASSIFICATION_TYPE": "U", "NORAD_CAT_ID": 34088, "ELEMENT_SET_NO": 999, "REV_AT_EPOCH": 88837, "BSTAR": 0.00181826, "MEAN_MOTION_DOT": 0.00018329, "MEAN_MOTION_DDOT": 0}, "tle": {"line1": "1 34088U 97051CX  25353.12764057  .00018329  00000+0  18183-2 0  9990", "line2": "2 34088  86.3843  27.7888 0006363 156.0805 257.7392 14.91662643888371"}}, "geometry": {"type": "Point", "coordinates": [-53.766867887834316, -86.33975170690758]}}, {"type": "Feature", "properties": {"norad_id": 34091, "name": "IRIDIUM 33 DEB", "group": "iridium-33-debris", "lat": -38.93312973960457, "lon": -113.39411685576152, "alt_km": 613.161803433788, "timestamp": "2025-12-19T16:54:44.647234+00:00", "meta": {"OBJECT_NAME": "IRIDIUM 33 DEB", "OBJECT_ID": "1997-051DA", "EPOCH": "2025-12-18T04:16:47.373312", "MEAN_MOTION": 14.8221607, "ECCENTRICITY": 0.00338054, "INCLINATION": 86.3422, "RA_OF_ASC_NODE": 64.3429, "ARG_OF_PERICENTER": 273.6022, "MEAN_ANOMALY": 86.1335, "EPHEMERIS_TYPE": 0, "CLASSIFICATION_TYPE": "U", "NORAD_CAT_ID": 34091, "ELEMENT_SET_NO": 999, "REV_AT_EPOCH": 87947, "BSTAR": 0.0037025527, "MEAN_MOTION_DOT": 0.00029931, "MEAN_MOTION_DDOT": 0}, "tle": {"line1": "1 34091U 97051DA  25352.17832608  .00029931  00000+0  37026-2 0  9994", "line2": "2 34091  86.3422  64.3429 0033805 273.6022  86.1335 14.82216070879475"}}, "geometry": {"type": "Point", "coordinates": [-113.39411685576152, -38.93312973960457]}}, {"type": "Feature", "properties": {"norad_id": 34097, "name": "IRIDIUM 33 DEB", "group": "iridium-33-debris", "lat": 3.9252328469019946, "lon": -1.4049562760791272, "alt_km": 724.7935348891224, "timestamp": "2025-12-19T16:54:44.647246+00:00", "meta": {"OBJECT_NAME": "IRIDIUM 33 DEB", "OBJECT_ID": "1997-051DG", "EPOCH": "2025-12-19T00:09:26.087616", "MEAN_MOTION": 14.34825402, "ECCENTRICITY": 0.00819041, "INCLINATION": 86.2, "RA_OF_ASC_NODE": 358.6418, "ARG_OF_PERICENTER": 341.7144, "MEAN_ANOMALY": 18.111, "EPHEMERIS_TYPE": 0, "CLASSIFICATION_TYPE": "U", "NORAD_CAT_ID": 34097, "ELEMENT_SET_NO": 999, "REV_AT_EPOCH": 87209, "BSTAR": 0.0011301988, "MEAN_MOTION_DOT": 3.348e-05, "MEAN_MOTION_DDOT": 0}, "tle": {"line1": "1 34097U 97051DG  25353.00655194  .00003348  00000+0  11302-2 0  9999", "line2": "2 34097  86.2000 358.6418 0081904 341.7144  18.1110 14.34825402872093"}}, "geometry": {"type": "Point", "coordinates": [-1.4049562760791272, 3.9252328469019946]}}, {"type": "Feature", "properties": {"norad_id": 34145, "name": "IRIDIUM 33 DEB", "group": "iridium-33-debris", "lat": 78.12570037354261, "lon": 131.05447277571395, "alt_km": 708.9951405039683, "timestamp": "2025-12-19T16:54:44.647257+00:00", "meta": {"OBJECT_NAME": "IRIDIUM 33 DEB", "OBJECT_ID": "1997-051DY", "EPOCH": "2025-12-18T08:48:48.486240", "MEAN_MOTION": 14.42328092, "ECCENTRICITY": 0.00557365, "INCLINATION": 86.2113, "RA_OF_ASC_NODE": 330.0199, "ARG_OF_PERICENTER": 75.968, "MEAN_ANOMALY": 284.7708, "EPHEMERIS_TYPE": 0, "CLASSIFICATION_TYPE": "U", "NORAD_CAT_ID": 34145, "ELEMENT_SET_NO": 999, "REV_AT_EPOCH": 87719, "BSTAR": 0.00092678493, "MEAN_MOTION_DOT": 3.137e-05, "MEAN_MOTION_DDOT": 0}, "tle": {"line1": "1 34145U 97051DY  25352.36722785  .00003137  00000+0  92678-3 0  9994", "line2": "2 34145  86.2113 330.0199 0055736  75.9680 284.7708 14.42328092877199"}}, "geometry": {"type": "Point", "coordinates": [131.05447277571395, 78.12570037354261]}}, {"type": "Feature", "properties": {"norad_id": 34146, "name": "IRIDIUM 33 DEB", "group": "iridium-33-debris", "lat": -85.8091674514634, "lon": -130.75270128479914, "alt_km": 729.8898570919227, "timestamp": "2025-12-19T16:54:44.647268+00:00", "meta": {"OBJECT_NAME": "IRIDIUM 33 DEB", "OBJECT_ID": "1997-051DZ", "EPOCH": "2025-12-18T23:22:46.077024", "MEAN_MOTION": 14.49088603, "ECCENTRICITY": 0.00260878, "INCLINATION": 86.2829, "RA_OF_ASC_NODE": 347.0462, "ARG_OF_PERICENTER": 199.8363, "MEAN_ANOMALY": 219.3623, "EPHEMERIS_TYPE": 0, "CLASSIFICATION_TYPE": "U", "NORAD_CAT_ID": 34146, "ELEMENT_SET_NO": 999, "REV_AT_EPOCH": 88197, "BSTAR": 0.00067792412, "MEAN_MOTION_DOT": 2.605e-05, "MEAN_MOTION_DDOT": 0}, "tle": {"line1": "1 34146U 97051DZ  25352.97414441  .00002605  00000+0  67792-3 0  9997", "line2": "2 34146  86.2829 347.0462 0026087 199.8363 219.3623 14.49088603881975"}}, "geometry": {"type": "Point", "coordinates": [-130.75270128479914, -85.8091674514634]}}, {"type": "Feature", "properties": {"norad_id": 34159, "name": "IRIDIUM 33 DEB", "group": "iridium-33-debris", "lat": 77.43159073523815, "lon": 61.907965097271465, "alt_km": 774.7323195885483, "timestamp": "2025-12-19T16:54:44.647279+00:00", "meta": {"OBJECT_NAME": "IRIDIUM 33 DEB", "OBJECT_ID": "1997-051EN", "EPOCH": "2025-12-19T03:11:39.945408", "MEAN_MOTION": 14.38508712, "ECCENTRICITY": 0.00259924, "INCLINATION": 86.3502, "RA_OF_ASC_NODE": 45.5154, "ARG_OF_PERICENTER": 265.2251, "MEAN_ANOMALY": 94.5979, "EPHEMERIS_TYPE": 0, "CLASSIFICATION_TYPE": "U", "NORAD_CAT_ID": 34159, "ELEMENT_SET_NO": 999, "REV_AT_EPOCH": 88051, "BSTAR": 0.00029175087, "MEAN_MOTION_DOT": 9.14e-06, "MEAN_MOTION_DDOT": 0}, "tle": {"line1": "1 34159U 97051EN  25353.13310122  .00000914  00000+0  29175-3 0  9995", "line2": "2 34159  86.3502  45.5154 0025992 265.2251  94.5979 14.38508712880516"}}, "geometry": {"type": "Point", "coordinates": [61.907965097271465, 77.43159073523815]}}, {"type": "Feature", "properties": {"norad_id": 34350, "name": "IRIDIUM 33 DEB", "group": "iridium-33-debris", "lat": -79.95523637046274, "lon": -21.477231157012497, "alt_km": 764.2129845808795, "timestamp": "2025-12-19T16:54:44.647290+00:00", "meta": {"OBJECT_NAME": "IRIDIUM 33 DEB", "OBJECT_ID": "1997-051ES", "EPOCH": "2025-12-19T07:23:11.638176", "MEAN_MOTION": 14.45401246, "ECCENTRICITY": 0.00232878, "INCLINATION": 86.3271, "RA_OF_ASC_NODE": 359.9569, "ARG_OF_PERICENTER": 114.9915, "MEAN_ANOMALY": 260.3378, "EPHEMERIS_TYPE": 0, "CLASSIFICATION_TYPE": "U", "NORAD_CAT_ID": 34350, "ELEMENT_SET_NO": 999, "REV_AT_EPOCH": 88388, "BSTAR": 0.00023910832, "MEAN_MOTION_DOT": 8.64e-06, "MEAN_MOTION_DDOT": 0}, "tle": {"line1": "1 34350U 97051ES  25353.30777359  .00000864  00000+0  23911-3 0  9992", "line2": "2 34350  86.3271 359.9569 0023287 114.9915 260.3378 14.45401246883887"}}, "geometry": {"type": "Point", "coordinates": [-21.477231157012497, -79.95523637046274]}}, {"type": "Feature", "properties": {"norad_id": 34366, "name": "IRIDIUM 33 DEB", "group": "iridium-33-debris", "lat": 74.71515788454447, "lon": -147.14850272993957, "alt_km": 689.398599884652, "timestamp": "2025-12-19T16:54:44.647300+00:00", "meta": {"OBJECT_NAME": "IRIDIUM 33 DEB", "OBJECT_ID": "1997-051FJ", "EPOCH": "2025-12-18T14:34:32.858400", "MEAN_MOTION": 14.54103617, "ECCENTRICITY": 0.00228949, "INCLINATION": 86.3697, "RA_OF_ASC_NODE": 46.7619, "ARG_OF_PERICENTER": 121.3306, "MEAN_ANOMALY": 2.8167, "EPHEMERIS_TYPE": 0, "CLASSIFICATION_TYPE": "U", "NORAD_CAT_ID": 34366, "ELEMENT_SET_NO": 999, "REV_AT_EPOCH": 88267, "BSTAR": 0.00070491505, "MEAN_MOTION_DOT": 3.008e-05, "MEAN_MOTION_DDOT": 0}, "tle": {"line1": "1 34366U 97051FJ  25352.60732475  .00003008  00000+0  70492-3 0  9990", "line2": "2 34366  86.3697  46.7619 0022894 121.3306   2.8167 14.54103617882674"}}, "geometry": {"type": "Point", "coordinates": [-147.14850272993957, 74.71515788454447]}}]}